STARLINK-5458           
1 54764U 22175G   25054.42270397  .00013733  00000+0  87910-3 0  9997
2 54764  53.2167 306.6462 0001216  80.5333 279.5797 15.08845934120502
STARLINK-5471           
1 54766U 22175J   25054.89277338  .00003250  00000+0  22214-3 0  9991
2 54766  53.2172 304.5991 0001352  96.6633 263.4513 15.08852863120570
STARLINK-5472           
1 54767U 22175K   25053.96173352  .00005849  00000+0  38533-3 0  9997
2 54767  53.2178 308.7417 0001285  89.9679 270.1460 15.08837304122599
STARLINK-5444           
1 54768U 22175L   25054.86019838  .00000083  00000+0  23334-4 0  9995
2 54768  53.2174 290.1349 0001443 101.7066 258.4088 15.08842211120779
STARLINK-5448           
1 54770U 22175N   25054.90706503  .00001542  00000+0  11498-3 0  9993
2 54770  53.2168 289.7245 0001287  95.9816 264.1323 15.08837765120782
STARLINK-5451           
1 54771U 22175P   25054.40928959  .00002015  00000+0  14463-3 0  9991
2 54771  53.2190 301.5758 0001229  93.5001 266.6132 15.08843295120573
STARLINK-5452           
1 54772U 22175Q   25054.37345909  .00000931  00000+0  76604-4 0  9997
2 54772  53.2176 292.0813 0001263  88.2980 271.8157 15.08838635120701
STARLINK-5453           
1 54773U 22175R   25054.88173700  .00001564  00000+0  11635-3 0  9997
2 54773  53.2189 304.5271 0001381  82.9836 277.1313 15.08825809120572
STARLINK-5454           
1 54774U 22175S   25054.85916175 -.00000296  00000+0 -49526-6 0  9992
2 54774  53.2161 289.4361 0001653  92.3788 267.7394 15.08837992120780
STARLINK-5465           
1 54775U 22175T   25054.41438788 -.00002629  00000+0 -14724-3 0  9995
2 54775  53.2198 306.5926 0001688  93.7925 266.3260 15.08809502120508
STARLINK-5470           
1 54776U 22175U   25053.99481163  .00002715  00000+0  18864-3 0  9996
2 54776  53.2187 308.2397 0001962  99.9382 260.1831 15.08835846120447
STARLINK-5468           
1 54777U 22175V   25054.01323151  .00000489  00000+0  48828-4 0  9993
2 54777  53.2174 308.3522 0001290  83.5321 276.5818 15.08838533120443
STARLINK-5450           
1 54778U 22175W   25054.36609037  .00000800  00000+0  68348-4 0  9998
2 54778  53.2187 292.0362 0001547  94.8072 265.3096 15.08837639120701
STARLINK-5447           
1 54779U 22175X   25054.83346143 -.00002098  00000+0 -11383-3 0  9996
2 54779  53.2174 289.9769 0001154  83.6859 276.4264 15.08819891120774
STARLINK-5449           
1 54780U 22175Y   25054.81498020  .00004898  00000+0  32523-3 0  9995
2 54780  53.2176 289.8600 0001238  91.3103 268.8031 15.08883783120770
STARLINK-5443           
1 54781U 22175Z   25054.82608906  .00001204  00000+0  93763-4 0  9995
2 54781  53.2199 289.9263 0001666 102.0943 258.0236 15.08830442120771
STARLINK-5439           
1 54783U 22175AB  25054.82239745 -.00000063  00000+0  14101-4 0  9990
2 54783  53.2182 289.9082 0001210  95.0404 265.0726 15.08841492120771
STARLINK-5442           
1 54784U 22175AC  25053.41338363 -.00000717  00000+0 -26977-4 0  9992
2 54784  53.2175 311.0039 0001388  85.8142 274.3009 15.08835939122515
STARLINK-5440           
1 54785U 22175AD  25054.27406411  .00001226  00000+0  95098-4 0  9992
2 54785  53.2169 252.2535 0001299  86.9832 273.1309 15.08839327121250
STARLINK-5441           
1 54787U 22175AF  25054.40330273  .00002102  00000+0  15009-3 0  9998
2 54787  53.2181 306.5197 0001278  83.3652 276.7486 15.08839125120509
STARLINK-5399           
1 54788U 22175AG  25054.81135099  .00003199  00000+0  21917-3 0  9995
2 54788  53.2182 289.8412 0001418 100.8332 259.2820 15.08814219120774
STARLINK-5446           
1 54789U 22175AH  25054.81087324  .00001763  00000+0  12884-3 0  9991
2 54789  53.2167 274.7439 0001397  81.8700 278.2450 15.08840148120986
STARLINK-5445           
1 54790U 22175AJ  25053.94285342  .00001603  00000+0  11881-3 0  9995
2 54790  53.2173 293.6574 0001656  98.4097 261.7083 15.08834324122807
STARLINK-5425           
1 54791U 22175AK  25054.81871870  .00003958  00000+0  26673-3 0  9990
2 54791  53.2188 289.8851 0001693 107.9112 252.2065 15.08827942120771
STARLINK-5431           
1 54792U 22175AL  25053.99849729  .00000120  00000+0  25647-4 0  9996
2 54792  53.2181 308.2595 0001580  95.0693 265.0480 15.08836181120444
STARLINK-5433           
1 54793U 22175AM  25054.81964454  .00000259  00000+0  34346-4 0  9991
2 54793  53.2164 279.9483 0001439  85.3335 274.7821 15.08836578120912
STARLINK-5392           
1 54794U 22175AN  25054.58335648  .00205615  00000+0  27821-2 0  9994
2 54794  53.1920 255.3452 0008754 201.6690 289.2421 15.56487200121241
STARLINK-5436           
1 54795U 22175AP  25054.80766389 -.00003227  00000+0 -18468-3 0  9995
2 54795  53.2195 289.8175 0001257  80.2761 279.8373 15.08849405120776
STARLINK-5415           
1 54796U 22175AQ  25054.80028990 -.00002945  00000+0 -16701-3 0  9999
2 54796  53.2175 289.7734 0001231  78.0132 282.0998 15.08838154120772
STARLINK-5435           
1 54797U 22175AR  25054.41531101  .00001559  00000+0  11603-3 0  9994
2 54797  53.2190 306.5950 0001387  85.8391 274.2760 15.08843143120508
STARLINK-5420           
1 54798U 22175AS  25054.86377687  .00002771  00000+0  19213-3 0  9993
2 54798  53.2168 279.5037 0001583 106.2966 253.8200 15.08842595120921
STARLINK-5421           
1 54799U 22175AT  25054.81596689  .00004672  00000+0  31158-3 0  9998
2 54799  53.2188 279.9169 0000843  91.9970 268.1119 15.08820559120910
STARLINK-5428           
1 54800U 22175AU  25053.94423605  .00007896  00000+0  51371-3 0  9991
2 54800  53.2182 298.6323 0001600 106.4890 253.6278 15.08835650122737
STARLINK-5429           
1 54801U 22175AV  25054.85224692  .00000242  00000+0  33323-4 0  9994
2 54801  53.2191 304.3549 0001494 112.0318 248.0833 15.08836497120577
STARLINK-5426           
1 54802U 22175AW  25054.84073346  .00000099  00000+0  24347-4 0  9998
2 54802  53.2165 249.2981 0001548  99.0434 261.0733 15.08838049121344
STARLINK-5430           
1 54803U 22175AX  25053.67097882  .00002496  00000+0  17488-3 0  9990
2 54803  53.2188 309.7564 0001625  92.4326 267.6852 15.08834590122557
STARLINK-5422           
1 54804U 22175AY  25054.84442422  .00000594  00000+0  55435-4 0  9997
2 54804  53.2181 289.3431 0001333  79.1849 280.9293 15.08836436120786
STARLINK-5417           
1 54805U 22175AZ  25054.86284416 -.00000304  00000+0 -10102-5 0  9991
2 54805  53.2179 289.4480 0001583  97.6971 262.4201 15.08840142120780
STARLINK-5412           
1 54806U 22175BA  25054.85179249  .00001035  00000+0  83096-4 0  9999
2 54806  53.2168 289.3872 0001257  75.6207 284.4924 15.08835790120788
STARLINK-5410           
1 54807U 22175BB  25054.39179373  .00002710  00000+0  18824-3 0  9994
2 54807  53.2166 291.4862 0001402  96.7521 263.3630 15.08845554120717
STARLINK-5413           
1 54808U 22175BC  25053.90195624  .00000188  00000+0  29877-4 0  9996
2 54808  53.2175 279.2264 0001429  94.8029 265.3126 15.08838131123009
STARLINK-5414           
1 54809U 22175BD  25054.38442734  .00000519  00000+0  50674-4 0  9994
2 54809  53.2173 291.4405 0001306  92.2255 267.8887 15.08839006120716
STARLINK-5408           
1 54810U 22175BE  25054.80258799 -.00001400  00000+0 -69942-4 0  9999
2 54810  53.2181 284.7846 0001358  97.6943 262.4204 15.08814194120840
STARLINK-5424           
1 54811U 22175BF  25054.03448264  .00017048  00000+0  10864-2 0  9993
2 54811  53.2169 288.5039 0001479 102.4418 257.6740 15.08847955120728
STARLINK-5382           
1 54820U 22177A   25053.64573493  .00001800  00000+0  14828-3 0  9998
2 54820  43.0026  38.6596 0001306 272.0532  88.0161 15.02538204119784
STARLINK-5385           
1 54821U 22177B   25053.96591967  .00000708  00000+0  67468-4 0  9995
2 54821  43.0039  36.7648 0001038 267.2837  92.7887 15.02534417119837
STARLINK-5101           
1 54822U 22177C   25054.22738991  .00000154  00000+0  26473-4 0  9992
2 54822  43.0057  35.2855 0000781 263.3102  96.7652 15.02536125118895
STARLINK-5106           
1 54823U 22177D   25054.44013168  .00001822  00000+0  14991-3 0  9993
2 54823  43.0039  34.3010 0000990 261.2610  98.8120 15.02543078118924
STARLINK-4643           
1 54824U 22177E   25054.90217897 -.00005657  00000+0 -40435-3 0  9994
2 54824  43.0022  31.7466 0000782 276.9538  83.1215 15.02505621118995
STARLINK-4801           
1 54825U 22177F   25054.62958500  .00000021  00000+0  16664-4 0  9993
2 54825  43.0025  33.1399 0001255 269.4100  90.6599 15.02534459118953
STARLINK-5107           
1 54826U 22177G   25054.62735429 -.00014931  00000+0 -10904-2 0  9993
2 54826  43.0030  33.1227 0001697 291.5719  68.4942 15.02609486118950
STARLINK-5383           
1 54827U 22177H   25054.61961599 -.00001610  00000+0 -10422-3 0  9998
2 54827  43.0039  33.0664 0001135 271.9377  88.1335 15.02519412118957
STARLINK-5381           
1 54828U 22177J   25054.21739973  .00001697  00000+0  14071-3 0  9991
2 54828  43.0047  35.2087 0001357 264.3213  95.7474 15.02530740118899
STARLINK-5394           
1 54830U 22177L   25054.21185547 -.00000166  00000+0  28137-5 0  9997
2 54830  43.0036  35.1655 0001218 269.5060  90.5643 15.02527943118895
STARLINK-5395           
1 54831U 22177M   25054.62292573  .00001225  00000+0  10577-3 0  9994
2 54831  43.0048  33.0911 0000740 256.8790 103.1970 15.02527668118954
STARLINK-5393           
1 54832U 22177N   25054.18780550  .00000764  00000+0  71618-4 0  9994
2 54832  43.0045  22.8493 0001020 269.4498  90.6228 15.02541176119036
STARLINK-5391           
1 54833U 22177P   25054.61737802  .00000374  00000+0  42737-4 0  9992
2 54833  43.0030  33.0476 0000691 271.5944  88.4820 15.02529783118952
STARLINK-5386           
1 54834U 22177Q   25053.94482401  .00000474  00000+0  50173-4 0  9994
2 54834  43.0053  36.6022 0001254 258.4094 101.6608 15.02540219119848
STARLINK-5389           
1 54835U 22177R   25054.21518155  .00005066  00000+0  38986-3 0  9991
2 54835  43.0044  35.1915 0001206 284.8171  75.2537 15.02533457118897
